#dP2020 11 22  0  0  0.00000000      96 __u+U ITR00 FIT  IAC
## 2133      0.00000000   900.00000000 59175 0.0000000000000
+  116   C06C07C08C09C10C11C12C13C14C16C19C20C21C22C23C24C25
+        C26C27C28C29C30C32C33C34C35C36C37C38C39C40C43C44C45
+        C46E01E02E03E04E05E07E08E09E11E12E13E14E15E18E19E21
+        E24E25E26E27E30E31E33E36G01G02G03G04G05G06G07G08G09
+        G10G11G12G13G14G15G16G17G18G19G20G21G22G23G24G25G26
+        G27G28G29G30G31G32J01J02J03R01R02R03R04R05R07R08R09
+        R12R13R14R15R16R17R18R19R20R21R22R23R24R25  0  0  0
++         7  8  8  6  8  8  8  8  7  8  6  8  6  7  9  8  7
++         7  6  7  7  6  7  7  8  8  7  8 10  8  9  8  9  9
++         8  7  7  7  6  6  6  6  7  7  7  7  5  6  7  7  6
++         7  7  6  6  6  6  6  7  6  7  5  6  6  6  6  6  6
++         6  5  6  7  6  6  5  6  8  5  6  7  7  6  7  6  6
++         6  6  6  6  7  5  5  7  8  7  6  6  8  5  6  5  6
++         7  8  7  5  8  8  6  5  7  5  8  7  7  9  0  0  0
%c M  cc GPS ccc cccc cccc cccc cccc ccccc ccccc ccccc ccccc
%c cc cc ccc ccc cccc cccc cccc cccc ccccc ccccc ccccc ccccc
%f  0.0000000  0.000000000  0.00000000000  0.000000000000000
%f  0.0000000  0.000000000  0.00000000000  0.000000000000000
%i    0    0    0    0      0      0      0      0         0
%i    0    0    0    0      0      0      0      0         0
/* INFORMATION & ANALYSIS CENTER (IAC)      ULTRA-RAPID DATA
/* S/V CLOCKS ARE ALIGNED TO GNSS TIME                      
/* G:C1WC2W R:C1PC2P E:C1XC5X C:C2IC6I J:C1CC2S             
/* PCV:IGS14_2131 OL/AL:FES2004  NONE     YN ORB:CoN CLK:CoN
*  2020 11 22 17 15  0.00000000
PC06  -9775.029116  23313.596109 -33277.085524    158.533912
PC07 -23546.710373  28453.919351  20139.017577    -63.086723
PC08 -13123.208037  38612.977493  11560.176798   -722.245236
PC09   5894.181020  31690.372125 -26720.668897    920.690592
PC10  -8469.938884  29487.865422  28987.712458   -136.910132
PC11  16633.690828  -2454.414219 -22216.127850   -769.130239
PC12  21094.036240  14678.084034 -10878.436679    624.245262
PC13  -4806.114470  42016.391941  -1702.767807    755.587051
PC14  26516.787883  -7666.454459   4302.788414    298.440693
PC16  -6825.813207  24728.351276 -33348.837394   -615.283820
PC19 -21178.252395  12791.674216 -12882.568835    627.596971
PC20 -27553.049727   2158.626173   3778.907051   -899.712452
PC21  17759.284216  10266.310194 -18919.438104   -730.633143
PC22  -2314.599469  16293.954796 -22540.346123   -797.376827
PC23   4488.593415 -26532.751346  -7367.866139   -908.140282
PC24  17443.118377  -2465.044315  21632.856689   -723.160095
PC25  14891.006890 -21488.606731   9724.626970   -836.082400
PC26   9932.986258  15955.920539  20634.232442    914.373616
PC27 -18373.056544 -20929.476231   1868.464797    437.180023
PC28  -5215.768321 -23003.453408 -14897.495358   -142.805544
PC29 -10504.056612  12049.314146  22871.529531    314.792829
PC30 -21081.558074  -6199.948302  17211.334144    407.422382
PC32 -17789.406178 -10176.114696  18943.629409   -885.578803
PC33  21188.001799 -12886.843676  12805.105734   -845.288319
PC34  20916.455660   5620.426875 -17590.114757   -802.961702
PC35   5732.257460  22764.757942  15067.425328   -547.632213
PC36 -15482.920493  20969.385024  -9945.837265   -828.133450
PC37  -9082.912900 -16810.536857 -20309.931992   -872.711196
PC38 -10922.066967  40135.121676   7311.509797    113.576884
PC39  -1380.260525  26962.522682 -32349.396270     25.455728
PC40 -17730.968246  24938.013875  28959.347778    103.621524
PC43  10970.256803 -11729.612279 -22822.966731   -473.757011
PC44  18968.804344  20377.577366  -1687.055079   -103.038493
PC45  -4417.747143  26544.463682   7448.580471    289.323606
PC46 -17489.619311   3451.313167 -21469.012938 999999.999999
PE01  11901.408690  11417.424453  24586.921939   -988.179621
PE02 -12011.764462 -11301.596542 -24574.278190    178.324351
PE03 -22873.206837 -15092.784944  11164.501979   -367.922250
PE04  28562.495106   3335.576344   7013.628789   -653.140368
PE05  -3685.541426 -18174.839701  23064.200607   -327.272421
PE07 -17476.402650  10623.795110 -21398.290703   -465.246475
PE08 -28520.212696  -2996.963853  -7318.711992   6087.846495
PE09  17279.102419 -10665.268339  21537.772299   5856.657174
PE11   9712.181592 -18364.667411 -21089.646794   6777.465418
PE12  17035.694265   3460.646025 -23951.470701   5493.315813
PE13  -9775.310755  18076.934260  21313.645684    406.949577
PE14 -12181.371685   9322.295738  17604.475744  -1234.493843
PE15 -16969.369674  -3286.439223  24038.277608    842.546919
PE18  16420.640270 -13462.481705 -24737.455616  -1348.661022
PE19  21226.952934  15921.418567 -13119.268467    134.872710
PE21  -6044.528834  22533.359829  18226.772712   -633.355976
PE24  21329.106795 -20495.881702   -578.400237   -596.973596
PE25   6201.673669 -22568.959822 -18104.368722   -520.761943
PE26   3371.701926  28907.332957   5448.541953   2466.114562
PE27 -20988.557358  20853.740030   1094.866110     87.377936
PE30 -23412.706357   6206.211260 -17028.303992   3403.055454
PE31  23514.985593  -6907.961031  16607.756167   -475.911934
PE33  14171.886088  22719.984998 -12609.240132   -463.553759
PE36  -3160.294801 -28796.159182  -6058.239981    477.509322
PG01 -13415.753827  10484.888917  20051.823355    804.742511
PG02  13695.806344  12789.689609 -18176.769307   -545.721251
PG03 -23087.182095  13007.340126    571.453584    -10.743086
PG04 -18478.738354   3974.769142 -18674.008821   -157.758504
PG05  20048.613703   2065.802323 -17545.730391    -26.538438
PG06   5954.868093  24312.206182  -8765.832977     -1.998633
PG07  -6469.732495  23771.737091  -8927.470456   -419.528005
PG08 -23524.972913  -3411.710460  12145.474537     -0.303403
PG09  -7377.478028  13542.642811 -21687.402541   -292.713474
PG10   1414.664516 -17074.659747  20316.761946   -510.843689
PG11 -16745.729025   1342.367395  20051.039921   -101.490849
PG12  24395.597713  -9782.791137   2950.070477     36.824395
PG13  22750.479491  12761.880301   5184.410855     67.525430
PG14  -4982.092491  17732.762183  19132.120034     30.229601
PG15  23671.441402    423.198822  12045.481639   -188.243758
PG16 -20167.308773  -3530.018044 -17387.178028   -240.100426
PG17  10218.260544  19175.992344  15723.906258    357.387190
PG18   5720.195114 -24766.847620  -7613.379260    324.510969
PG19  15928.546877  19058.580060   9230.140870    -74.896742
PG20  11832.553444 -20429.773701  11833.095120    525.912065
PG21 -15646.329758   1000.264584  22180.211604     70.758104
PG22 -23454.219415   8426.447485   9152.959459   -726.250429
PG23  12021.834926 -18984.080962  14107.301373    103.203571
PG24  14859.470872  -6517.243518  20745.722713      6.088530
PG25  18067.516468 -17411.239944  -8521.915406     26.689330
PG26 -10500.243949 -11716.462355 -21451.197422      3.048587
PG27 -23563.650604 -12605.694873   1084.806931    -19.277620
PG28  -1247.321272  16541.717448  21359.960908    652.306902
PG29   9893.112405 -11016.663880 -22089.109204   -241.678516
PG30   -305.604482  26436.830327    487.418053   -340.047831
PG31  -7294.517045 -22802.084723 -11044.987314    -83.073661
PG32 -11356.822248 -18709.960292  15243.711555      2.616011
PJ01 -34091.156937  15873.487791 -14430.093931   -335.793211
PJ02 -27046.468985  32079.301570    818.835047     -0.071850
PJ03 -25657.776385  22759.014899  29637.208561     -3.407583
PR01  25395.697114   1012.000662  -2243.484274     70.982076
PR02  16735.247738  -7927.144629  17543.066712    455.524110
PR03  -1599.915428 -10988.845294  22999.103368     26.035930
PR04 -18788.977348  -7618.753986  15502.654995     62.604149
PR05 -25511.207885   -170.974779   -731.315361     61.595372
PR07   2176.433065  10951.727516 -22903.916293    -41.462423
PR08  18793.191560   7668.514143 -15389.622385    -55.836372
PR09 -14543.767382  20418.613246  -4505.922393      9.133834
PR12  15008.636011  -7292.885331  19312.803483    182.310488
PR13  14532.571946 -20380.964951   4889.711192    -46.994395
PR14   5572.479164 -21373.257038 -12753.991665     57.998695
PR15  -6523.550007  -9994.568958 -22519.754939    106.629874
PR16 -15210.158363   8434.326931 -18733.312754     -8.446326
PR17  -6377.563364 -22054.018686 -11056.422571    376.196307
PR18 -14103.828382 -20476.801592   5820.246173     57.117271
PR19 -14182.408062  -8902.201842  19242.330294   -120.787740
PR20  -5732.184118  10698.337743  22441.463203   -427.201304
PR21   7023.507400  22370.603767  10091.960859   -167.998795
PR22  14244.724948  19918.068093  -6992.957957    -83.182207
PR23  12047.441383   1202.123846 -22455.845946    346.564513
PR24   5546.329546 -11625.179454 -21992.004362     21.465650
PR25  -1438.699263  18726.258342  17252.983480     -1.790233
EOF
